SUPERVIEW NEO-2 OBJECT A
1 68377U 26062A   26108.29847897  .00001777  00000+0  86293-4 0  9991
2 68377  97.4403 116.4623 0001459 108.2182 251.9212 15.19749843  3550
SUPERVIEW NEO-2 OBJECT B
1 68378U 26062B   26108.29848146  .00001805  00000+0  87683-4 0  9996
2 68378  97.4403 116.4568 0001721  86.6460 273.4972 15.19725530  3558
STARLINK-36296          
1 68380U 26063A   26108.25003472  .00020836  00000+0  14035-3 0  9996
2 68380  97.2860 250.1461 0001395  82.7808 125.8906 15.75168712  2016
STARLINK-37111          
1 68381U 26063B   26108.25003472  .00034667  00000+0  23263-3 0  9997
2 68381  97.2857 249.9800 0001421  84.0946 104.6155 15.75162162  4829
STARLINK-36946          
1 68382U 26063C   26107.95454174  .00160717  00000+0  82248-3 0  9997
2 68382  97.2850 249.6875 0001434  75.1750 284.9677 15.80867690  3824
STARLINK-37121          
1 68383U 26063D   26108.00004630 -.00165403  00000+0 -11266-2 0  9993
2 68383  97.2858 249.7065 0001263  84.1834 103.8642 15.75252071  4780
STARLINK-37137          
1 68384U 26063E   26107.92347156  .00108874  00000+0  72057-3 0  9990
2 68384  97.2845 249.5766 0001459  82.9330 277.2101 15.75220922  3816
STARLINK-37128          
1 68385U 26063F   26107.95229098  .00169127  00000+0  86480-3 0  9991
2 68385  97.2851 249.6918 0002494  45.8986 314.2487 15.80862037  3824
STARLINK-37198          
1 68386U 26063G   26107.90759214  .00095145  00000+0  63105-3 0  9992
2 68386  97.2847 249.5988 0001539  79.1313 281.0126 15.75212949  3814
STARLINK-37223          
1 68387U 26063H   26107.95078424  .00143123  00000+0  73435-3 0  9992
2 68387  97.2852 249.6930 0001731  62.1802 297.9641 15.80857067  3829
STARLINK-37203          
1 68388U 26063J   26107.95003301  .00079965  00000+0  41392-3 0  9994
2 68388  97.2853 249.6942 0001545  71.8991 288.2446 15.80840824  3822
STARLINK-37197          
1 68389U 26063K   26107.91711912  .00095604  00000+0  63404-3 0  9991
2 68389  97.2846 249.5852 0001440  90.2664 269.8766 15.75213715  3816
STARLINK-37193          
1 68390U 26063L   26108.25003472  .00018678  00000+0  12594-3 0  9996
2 68390  97.2856 250.2213 0001287  80.1802 320.4780 15.75168495  3151
STARLINK-37216          
1 68391U 26063M   26108.25003472  .00018953  00000+0  12777-3 0  9996
2 68391  97.2858 249.9987 0001335  87.2352 145.4725 15.75168432  4829
STARLINK-37215          
1 68392U 26063N   26108.25003472 -.00338508  00000+0 -23387-2 0  9998
2 68392  97.2854 250.0158 0001403  82.5078 190.0988 15.75394059  4821
